NORAD_CAT_ID,OBJECT_NAME,OBJECT_TYPE,EPOCH,MEAN_MOTION,ECCENTRICITY,INCLINATION,RA_OF_ASC_NODE,ARG_OF_PERICENTER,MEAN_ANOMALY,BSTAR,MEAN_MOTION_DOT,MEAN_MOTION_DDOT,TLE_LINE0,TLE_LINE1,TLE_LINE2,SEMIMAJOR_AXIS,PERIOD,APOGEE,PERIGEE,DECAYED
53847.0,STARLINK-4777,PAYLOAD,2022-11-28 00:00:00,15.50027113,0.0001247,53.217,273.3775,79.4427,284.8801,-0.0039208,-0.00217992,0.0,0 STARLINK-4777,1 53847U 22114AF  22332.00001157 -.00217992  00000-0 -39208-2 0  9999,2 53847  53.2170 273.3775 0001247  79.4427 284.8801 15.50027113 11578,6794.784000000002,92.902,417.496,415.802,0.0
53847.0,STARLINK-4777,PAYLOAD,2022-11-28 08:00:01,15.49840421,0.0001098,53.2141,271.7873,71.7533,353.3958,0.0016864,0.00096294,0.0,0 STARLINK-4777,1 53847U 22114AF  22332.33334491  .00096294  00000-0  16864-2 0  9996,2 53847  53.2141 271.7873 0001098  71.7533 353.3958 15.49840421 11639,6795.329000000002,92.913,417.941,416.448,0.0
53847.0,STARLINK-4777,PAYLOAD,2022-11-28 22:00:01,15.50030341,0.0001174,53.2167,268.9959,71.8358,10.0067,-0.024903,-0.01285867,0.0,0 STARLINK-4777,1 53847U 22114AF  22332.91668981 -.01285867  00000-0 -24903-1 0  9995,2 53847  53.2167 268.9959 0001174  71.8358  10.0067 15.50030341  1306,6794.774,92.901,417.437,415.842,0.0
53847.0,STARLINK-4777,PAYLOAD,2022-11-29 06:00:00,15.49098881,0.0001313,53.2171,267.4058,82.2689,60.0304,-0.022267,-0.01110498,0.0,0 STARLINK-4777,1 53847U 22114AF  22333.25001157 -.01110498  00000-0 -22267-1 0  9997,2 53847  53.2171 267.4058 0001313  82.2689  60.0304 15.49098881 11775,6797.498000000001,92.957,420.255,418.47,0.0
53847.0,STARLINK-4777,PAYLOAD,2022-11-29 14:00:01,15.48307443,0.0001236,53.2172,265.8136,76.9035,124.9372,-0.023595,-0.01157987,0.0,0 STARLINK-4777,1 53847U 22114AF  22333.58335648 -.01157987  00000-0 -23595-1 0  9997,2 53847  53.2172 265.8136 0001236  76.9035 124.9372 15.48307443  1303,6799.814,93.005,422.52,420.839,0.0
53847.0,STARLINK-4777,PAYLOAD,2022-11-29 22:00:00,15.47503887,0.000124,53.2169,264.2253,83.9428,176.3364,-0.024571,-0.0117112,0.0,0 STARLINK-4777,1 53847U 22114AF  22333.91667824 -.01171120  00000-0 -24571-1 0  9998,2 53847  53.2169 264.2253 0001240  83.9428 176.3364 15.47503887 11875,6802.168000000002,93.053,424.876,423.189,0.0
53847.0,STARLINK-4777,PAYLOAD,2022-11-30 14:00:01,15.45855735,0.0001052,53.2175,261.0542,74.0812,300.356,-0.02534,-0.01142987,0.0,0 STARLINK-4777,1 53847U 22114AF  22334.58335648 -.01142987  00000-0 -25340-1 0  9992,2 53847  53.2175 261.0542 0001052  74.0812 300.3560 15.45855735  1301,6807.002,93.152,429.583,428.151,0.0
53847.0,STARLINK-4777,PAYLOAD,2022-11-30 22:00:00,15.45043607,0.0001174,53.2177,259.4723,69.8635,0.0831,-0.026117,-0.01145317,0.0,0 STARLINK-4777,1 53847U 22114AF  22334.91667824 -.01145317  00000-0 -26117-1 0  9996,2 53847  53.2177 259.4723 0001174  69.8635   0.0831 15.45043607  1307,6809.387,93.201,432.051,430.453,0.0
53847.0,STARLINK-4777,PAYLOAD,2022-12-01 06:00:00,15.44224477,0.0001302,53.2173,257.8931,65.8376,58.707,-0.026621,-0.01135976,0.0,0 STARLINK-4777,1 53847U 22114AF  22335.25001157 -.01135976  00000-0 -26621-1 0  9995,2 53847  53.2173 257.8931 0001302  65.8376  58.7070 15.44224477 12084,6811.795,93.251,434.547,432.773,0.0
53847.0,STARLINK-4777,PAYLOAD,2022-12-01 14:00:01,15.43413124,0.0001272,53.2174,256.3127,85.8933,92.2706,-0.027463,-0.01139592,0.0,0 STARLINK-4777,1 53847U 22114AF  22335.58334491 -.01139592  00000-0 -27463-1 0  9994,2 53847  53.2174 256.3127 0001272  85.8933  92.2706 15.43413124  1303,6814.182,93.3,436.914,435.18,0.0
53847.0,STARLINK-4777,PAYLOAD,2022-12-01 22:00:00,15.42599682,0.0001345,53.217,254.7366,90.5169,140.2878,-0.02825,-0.01140316,0.0,0 STARLINK-4777,1 53847U 22114AF  22335.91667824 -.01140316  00000-0 -28250-1 0  9991,2 53847  53.2170 254.7366 0001345  90.5169 140.2878 15.42599682 12186,6816.5769999999975,93.349,439.359,437.525,0.0
53847.0,STARLINK-4777,PAYLOAD,2022-12-02 14:00:01,15.40980066,0.0001102,53.217,251.5889,89.2268,243.9233,-0.030145,-0.01151232,0.0,0 STARLINK-4777,1 53847U 22114AF  22336.58334491 -.01151232  00000-0 -30145-1 0  9991,2 53847  53.2170 251.5889 0001102  89.2268 243.9233 15.40980066  1303,6821.353,93.447,443.969,442.466,0.0
53847.0,STARLINK-4777,PAYLOAD,2022-12-02 16:00:00,15.40767469,0.0001132,53.2172,251.1954,80.3287,355.3448,-0.030006,-0.01138959,0.0,0 STARLINK-4777,1 53847U 22114AF  22336.66667824 -.01138959  00000-0 -30006-1 0  9996,2 53847  53.2172 251.1954 0001132  80.3287 355.3448 15.40767469 12308,6821.98,93.46,444.617,443.073,0.0
53847.0,STARLINK-4777,PAYLOAD,2022-12-02 22:00:00,15.40188365,0.0001127,53.2168,250.0182,90.5727,292.2736,-0.031814,-0.01180494,0.0,0 STARLINK-4777,1 53847U 22114AF  22336.91667824 -.01180494  00000-0 -31814-1 0  9993,2 53847  53.2168 250.0182 0001127  90.5727 292.2736 15.40188365  1309,6823.69,93.495,446.324,444.786,0.0
53847.0,STARLINK-4777,PAYLOAD,2022-12-03 14:00:01,15.38532226,0.0001200999999999,53.2172,246.8821,83.0363,36.3063,-0.032388,-0.01141398,0.0,0 STARLINK-4777,1 53847U 22114AF  22337.58334491 -.01141398  00000-0 -32388-1 0  9995,2 53847  53.2172 246.8821 0001201  83.0363  36.3063 15.38532226 12446,6828.5859999999975,93.596,451.271,449.631,0.0
53847.0,STARLINK-4777,PAYLOAD,2022-12-03 22:00:00,15.37741957,0.0001361,53.2169,245.3175,91.4045,74.7003,-0.034245,-0.01172956,0.0,0 STARLINK-4777,1 53847U 22114AF  22337.91667824 -.01172956  00000-0 -34245-1 0  9999,2 53847  53.2169 245.3175 0001361  91.4045  74.7003 15.37741957  1300,6830.925,93.644,453.72,451.861,0.0
53847.0,STARLINK-4777,PAYLOAD,2022-12-04 14:00:01,15.36086518,0.0001249,53.2173,242.1926,83.8892,172.8441,-0.034831,-0.01134053,0.0,0 STARLINK-4777,1 53847U 22114AF  22338.58334491 -.01134053  00000-0 -34831-1 0  9991,2 53847  53.2173 242.1926 0001249  83.8892 172.8441 15.36086518  1304,6835.831999999999,93.745,458.551,456.843,0.0
53847.0,STARLINK-4777,PAYLOAD,2022-12-04 22:00:00,15.35305685,0.0001256,53.217,240.6342,104.7285,195.8279,-0.03723,-0.01177729,0.0,0 STARLINK-4777,1 53847U 22114AF  22338.91667824 -.01177729  00000-0 -37230-1 0  9990,2 53847  53.2170 240.6342 0001256 104.7285 195.8279 15.35305685  1305,6838.15,93.792,460.874,459.156,0.0
53847.0,STARLINK-4777,PAYLOAD,2022-12-05 06:00:00,15.3448775,0.000112,53.2167,239.078,81.1135,262.3069,-0.038001,-0.01171514,0.0,0 STARLINK-4777,1 53847U 22114AF  22339.25001157 -.01171514  00000-0 -38001-1 0  9992,2 53847  53.2167 239.0780 0001120  81.1135 262.3069 15.34487750 12695,6840.579000000002,93.842,463.211,461.67800000000005,0.0
53847.0,STARLINK-4777,PAYLOAD,2022-12-05 14:00:01,15.33650069,0.0001089,53.2171,237.5208,68.3306,317.052,-0.037901,-0.011405,0.0,0 STARLINK-4777,1 53847U 22114AF  22339.58335648 -.01140500  00000-0 -37901-1 0  9992,2 53847  53.2171 237.5208 0001089  68.3306 317.0520 15.33650069  1309,6843.07,93.894,465.68,464.19,0.0
53847.0,STARLINK-4777,PAYLOAD,2022-12-05 22:00:01,15.3283505,0.0001262,53.2176,235.9685,65.062,1.2278,-0.038841,-0.01139082,0.0,0 STARLINK-4777,1 53847U 22114AF  22339.91668981 -.01139082  00000-0 -38841-1 0  9995,2 53847  53.2176 235.9685 0001262  65.0620   1.2278 15.32835050  1307,6845.496,93.944,468.224,466.497,0.0
53847.0,STARLINK-4777,PAYLOAD,2022-12-06 08:00:01,15.31821399,0.0001359,53.2169,234.0293,82.1363,123.8468,-0.040293,-0.01143981,0.0,0 STARLINK-4777,1 53847U 22114AF  22340.33334491 -.01143981  00000-0 -40293-1 0  9996,2 53847  53.2169 234.0293 0001359  82.1363 123.8468 15.31821399 12860,6848.515,94.006,471.311,469.449,0.0
53847.0,STARLINK-4777,PAYLOAD,2022-12-06 14:00:01,15.31211714,0.0001321,53.217,232.8663,71.53699999999998,73.6316,-0.041099,-0.01144643,0.0,0 STARLINK-4777,1 53847U 22114AF  22340.58335648 -.01144643  00000-0 -41099-1 0  9999,2 53847  53.2170 232.8663 0001321  71.5370  73.6316 15.31211714  1303,6850.333000000001,94.043,473.103,471.293,0.0
53847.0,STARLINK-4777,PAYLOAD,2022-12-06 22:00:00,15.3042245,0.0001373,53.2172,231.3195,92.9069,90.1581,-0.043404,-0.01176242,0.0,0 STARLINK-4777,1 53847U 22114AF  22340.91667824 -.01176242  00000-0 -43404-1 0  9992,2 53847  53.2172 231.3195 0001373  92.9069  90.1581 15.30422450  1306,6852.688,94.092,475.494,473.612,0.0
53847.0,STARLINK-4777,PAYLOAD,2022-12-07 08:00:01,15.29376055,0.0001171,53.217,229.3875,88.7624,230.4087,-0.043216,-0.01137285,0.0,0 STARLINK-4777,1 53847U 22114AF  22341.33334491 -.01137285  00000-0 -43216-1 0  9995,2 53847  53.2170 229.3875 0001171  88.7624 230.4087 15.29376055 13010,6855.813,94.156,478.481,476.876,0.0
53847.0,STARLINK-4777,PAYLOAD,2022-12-08 00:00:00,15.27752825,0.0001145,53.2173,226.3034,87.7632,301.9745,-0.045711,-0.01143558,0.0,0 STARLINK-4777,1 53847U 22114AF  22342.00001157 -.01143558  00000-0 -45711-1 0  9992,2 53847  53.2173 226.3034 0001145  87.7632 301.9745 15.27752825  1301,6860.669,94.256,483.319,481.74800000000016,0.0
53847.0,STARLINK-4777,PAYLOAD,2022-12-08 08:00:01,15.26934539,0.0001163,53.2174,224.763,85.1657,338.3922,-0.046565,-0.01136744,0.0,0 STARLINK-4777,1 53847U 22114AF  22342.33334491 -.01136744  00000-0 -46565-1 0  9995,2 53847  53.2174 224.7630 0001163  85.1657 338.3922 15.26934539 13177,6863.12,94.307,485.783,484.186,0.0
53847.0,STARLINK-4777,PAYLOAD,2022-12-08 14:00:01,15.26326132,0.0001192,53.2166,223.609,68.3556,289.9225,-0.047522,-0.011538,0.0,0 STARLINK-4777,1 53847U 22114AF  22342.58334491 -.01153800  00000-0 -47522-1 0  9998,2 53847  53.2166 223.6090 0001192  68.3556 289.9225 15.26326132  1302,6864.943,94.344,487.626,485.99,0.0
53847.0,STARLINK-4777,PAYLOAD,2022-12-08 22:00:01,15.25510569,0.0001308,53.2176,222.074,59.6418,330.8067,-0.048614,-0.01151667,0.0,0 STARLINK-4777,1 53847U 22114AF  22342.91668981 -.01151667  00000-0 -48614-1 0  9991,2 53847  53.2176 222.0740 0001308  59.6418 330.8067 15.25510569  1305,6867.39,94.395,490.153,488.356,0.0
